NORAD_CAT_ID,OBJECT_NAME,OBJECT_TYPE,EPOCH,MEAN_MOTION,ECCENTRICITY,INCLINATION,RA_OF_ASC_NODE,ARG_OF_PERICENTER,MEAN_ANOMALY,BSTAR,MEAN_MOTION_DOT,MEAN_MOTION_DDOT,TLE_LINE0,TLE_LINE1,TLE_LINE2,SEMIMAJOR_AXIS,PERIOD,APOGEE,PERIGEE,DECAYED
53913.0,STARLINK-5053,PAYLOAD,2023-11-04 22:11:34,15.08834124,0.0001523,53.2165,195.7831,92.3435,267.7732,-2.102e-05,-6.22e-06,0.0,0 STARLINK-5053,1 53913U 22119AD  23308.92470536 -.00000622  00000-0 -21020-4 0  9999,2 53913  53.2165 195.7831 0001523  92.3435 267.7732 15.08834124 62633,6917.898,95.438,540.817,538.71,0.0
53913.0,STARLINK-5053,PAYLOAD,2023-11-05 09:19:15,15.08852058,0.0001627,53.2181,193.7047,97.7474,262.3703,0.00020017,2.9e-05,0.0,0 STARLINK-5053,1 53913U 22119AD  23309.38837683  .00002900  00000-0  20017-3 0  9993,2 53913  53.2181 193.7047 0001627  97.7474 262.3703 15.08852058 62281,6917.844,95.437,540.834,538.583,0.0
53913.0,STARLINK-5053,PAYLOAD,2023-11-05 22:02:19,15.0888801,0.0001727,53.2166,191.3231,122.1186,237.9974,0.00086941,0.00013594,0.0,0 STARLINK-5053,1 53913U 22119AD  23309.91827794  .00013594  00000-0  86941-3 0  9993,2 53913  53.2166 191.3231 0001727 122.1186 237.9974 15.08888010 62787,6917.734,95.435,540.793,538.404,0.0
53913.0,STARLINK-5053,PAYLOAD,2023-11-06 02:48:27,15.0888988,0.0001402,53.2163,190.4306,95.2471,264.8681,0.00068493,0.00010644,0.0,0 STARLINK-5053,1 53913U 22119AD  23310.11698959  .00010644  00000-0  68493-3 0  9991,2 53913  53.2163 190.4306 0001402  95.2471 264.8681 15.08889880 62391,6917.728,95.434,540.563,538.623,0.0
53913.0,STARLINK-5053,PAYLOAD,2023-11-06 21:53:08,15.08814933,0.0001674,53.2166,186.8616,34.8669,325.2432,-0.00050668,-8.337e-05,0.0,0 STARLINK-5053,1 53913U 22119AD  23310.91190728 -.00008337  00000-0 -50668-3 0  9993,2 53913  53.2166 186.8616 0001674  34.8669 325.2432 15.08814933 62939,6917.957,95.439,540.98,538.664,0.0
53913.0,STARLINK-5053,PAYLOAD,2023-11-07 04:14:41,15.08799694,0.0001237,53.2167,185.6731,88.9133,271.2001,-0.00086965,-0.00014086,0.0,0 STARLINK-5053,1 53913U 22119AD  23311.17686864 -.00014086  00000-0 -86965-3 0  9990,2 53913  53.2167 185.6731 0001237  88.9133 271.2001 15.08799694 62552,6918.004,95.44,540.724,539.013,0.0
53913.0,STARLINK-5053,PAYLOAD,2023-11-07 09:00:51,15.08802249,0.0001452,53.2162,184.7799,98.303,261.8127,-0.0006888,-0.00011222,0.0,0 STARLINK-5053,1 53913U 22119AD  23311.37559292 -.00011222  00000-0 -68880-3 0  9991,2 53913  53.2162 184.7799 0001452  98.3030 261.8127 15.08802249 63007,6917.996,95.44,540.865,538.856,0.0
53913.0,STARLINK-5053,PAYLOAD,2023-11-07 20:08:33,15.08807892,0.000121,53.2168,182.6985,103.4148,256.6979,-0.0002598,-4.416e-05,0.0,0 STARLINK-5053,1 53913U 22119AD  23311.83928030 -.00004416  00000-0 -25980-3 0  9993,2 53913  53.2168 182.6985 0001210 103.4148 256.6979 15.08807892 62653,6917.979,95.44,540.681,539.006,0.0
53913.0,STARLINK-5053,PAYLOAD,2023-11-07 23:19:19,15.08831988,0.0001236,53.2168,182.1077,101.4365,258.6766,0.00015495,2.179e-05,0.0,0 STARLINK-5053,1 53913U 22119AD  23311.97175526  .00002179  00000-0  15495-3 0  9994,2 53913  53.2168 182.1077 0001236 101.4365 258.6766 15.08831988 62678,6917.905,95.438,540.625,538.915,0.0
53913.0,STARLINK-5053,PAYLOAD,2023-11-08 21:34:43,15.08852528,9.04e-05,53.2164,177.9455,89.7463,270.3633,0.0012736,0.00020046,0.0,0 STARLINK-5053,1 53913U 22119AD  23312.89911953  .00020046  00000-0  12736-2 0  9995,2 53913  53.2164 177.9455 0000904  89.7463 270.3633 15.08852528 63234,6917.842,95.437,540.332,539.082,0.0
53913.0,STARLINK-5053,PAYLOAD,2023-11-09 00:45:29,15.08861537,0.0001075,53.2163,177.3486,92.7828,267.3287,0.0011341,0.00017818,0.0,0 STARLINK-5053,1 53913U 22119AD  23313.03159441  .00017818  00000-0  11341-2 0  9992,2 53913  53.2163 177.3486 0001075  92.7828 267.3287 15.08861537 62836,6917.815,95.436,540.423,538.936,0.0
53913.0,STARLINK-5053,PAYLOAD,2023-11-09 19:50:07,15.08841143,0.0001224,53.2165,173.7828,82.2071,277.9061,0.00029792,4.457e-05,0.0,0 STARLINK-5053,1 53913U 22119AD  23313.82648019  .00004457  00000-0  29792-3 0  9998,2 53913  53.2165 173.7828 0001224  82.2071 277.9061 15.08841143 62959,6917.877,95.437,540.589,538.895,0.0
53913.0,STARLINK-5053,PAYLOAD,2023-11-09 21:25:30,15.08850909,0.0001328,53.2168,173.4829,87.825,272.2894,5.7131e-05,6.22e-06,0.0,0 STARLINK-5053,1 53913U 22119AD  23313.89271391  .00000622  00000-0  57131-4 0  9999,2 53913  53.2168 173.4829 0001328  87.8250 272.2894 15.08850909 63385,6917.847,95.437,540.631,538.793,0.0
53913.0,STARLINK-5053,PAYLOAD,2023-11-10 00:36:16,15.08851911,0.000135,53.2166,172.887,83.1762,276.9384,5.375e-05,5.68e-06,0.0,0 STARLINK-5053,1 53913U 22119AD  23314.02519192  .00000568  00000-0  53750-4 0  9991,2 53913  53.2166 172.8870 0001350  83.1762 276.9384 15.08851911 62988,6917.844,95.437,540.643,538.775,0.0
53913.0,STARLINK-5053,PAYLOAD,2023-11-10 21:16:16,15.08855979,0.0001399,53.2164,169.0199,89.7139,270.4013,-3.9247e-05,-9.13e-06,0.0,0 STARLINK-5053,1 53913U 22119AD  23314.88630397 -.00000913  00000-0 -39247-4 0  9997,2 53913  53.2164 169.0199 0001399  89.7139 270.4013 15.08855979 63539,6917.832,95.437,540.664,538.729,0.0
53913.0,STARLINK-5053,PAYLOAD,2023-11-11 14:45:31,15.08839519,0.0001496,53.2157,165.7472,99.032,261.0842,6.307e-05,7.16e-06,0.0,0 STARLINK-5053,1 53913U 22119AD  23315.61495017  .00000716  00000-0  63070-4 0  9997,2 53913  53.2157 165.7472 0001496  99.0320 261.0842 15.08839519 63642,6917.882,95.438,540.782,538.712,0.0
53913.0,STARLINK-5053,PAYLOAD,2023-11-11 19:31:41,15.08840954,0.00015,53.2159,164.8551,98.9567,261.1595,6.4702e-05,7.42e-06,0.0,0 STARLINK-5053,1 53913U 22119AD  23315.81366903  .00000742  00000-0  64702-4 0  9992,2 53913  53.2159 164.8551 0001500  98.9567 261.1595 15.08840954 63257,6917.877,95.437,540.78,538.705,0.0
53913.0,STARLINK-5053,PAYLOAD,2023-11-11 21:07:04,15.0884192,0.0001391,53.2158,164.5609,90.5188,269.5964,4.9088e-05,4.93e-06,0.0,0 STARLINK-5053,1 53913U 22119AD  23315.87990831  .00000493  00000-0  49088-4 0  9994,2 53913  53.2158 164.5609 0001391  90.5188 269.5964 15.08841920 63685,6917.875,95.437,540.702,538.777,0.0
53913.0,STARLINK-5053,PAYLOAD,2023-11-12 06:39:22,15.088406,0.0001364,53.2153,162.7761,86.415,273.6998,2.0797e-05,4.3e-07,0.0,0 STARLINK-5053,1 53913U 22119AD  23316.27734899  .00000043  00000-0  20797-4 0  9996,2 53913  53.2153 162.7761 0001364  86.4150 273.6998 15.08840600 63746,6917.879,95.438,540.687,538.8,0.0
53913.0,STARLINK-5053,PAYLOAD,2023-11-12 20:57:51,15.08842721,0.0001299,53.2164,160.1,90.2717,269.8424,4.0688e-07,-2.81e-06,0.0,0 STARLINK-5053,1 53913U 22119AD  23316.87351199 -.00000281  00000-0  40688-6 0  9998,2 53913  53.2164 160.1000 0001299  90.2717 269.8424 15.08842721 63832,6917.872,95.437,540.636,538.838,0.0
53913.0,STARLINK-5053,PAYLOAD,2023-11-13 06:30:10,15.08843172,0.0001361,53.2167,158.3163,98.9472,261.1674,6.2396e-05,7.05e-06,0.0,0 STARLINK-5053,1 53913U 22119AD  23317.27095033  .00000705  00000-0  62396-4 0  9993,2 53913  53.2167 158.3163 0001361  98.9472 261.1674 15.08843172 63896,6917.871,95.437,540.677,538.794,0.0
53913.0,STARLINK-5053,PAYLOAD,2023-11-13 22:24:01,15.08844081,0.0001358,53.2165,155.3425,89.7766,270.3382,0.00013484,1.859e-05,0.0,0 STARLINK-5053,1 53913U 22119AD  23317.93334917  .00001859  00000-0  13484-3 0  9997,2 53913  53.2165 155.3425 0001358  89.7766 270.3382 15.08844081 63991,6917.868,95.437,540.672,538.793,0.0
53913.0,STARLINK-5053,PAYLOAD,2023-11-14 12:42:29,15.08839248,0.0001361,53.2169,152.667,90.9616,269.1532,0.00010782,1.428e-05,0.0,0 STARLINK-5053,1 53913U 22119AD  23318.52951297  .00001428  00000-0  10782-3 0  9999,2 53913  53.2169 152.6670 0001361  90.9616 269.1532 15.08839248 64082,6917.883,95.438,540.689,538.806,0.0
53913.0,STARLINK-5053,PAYLOAD,2023-11-15 12:33:17,15.08840914,0.0001413,53.2156,148.2056,90.2331,269.8823,4.3871e-05,4.1e-06,0.0,0 STARLINK-5053,1 53913U 22119AD  23319.52311409  .00000410  00000-0  43871-4 0  9991,2 53913  53.2156 148.2056 0001413  90.2331 269.8823 15.08840914 64231,6917.878,95.437,540.72,538.765,0.0
53913.0,STARLINK-5053,PAYLOAD,2023-11-15 18:54:49,15.08840203,0.0001408,53.2156,147.016,90.1673,269.9481,3.2264e-05,2.26e-06,0.0,0 STARLINK-5053,1 53913U 22119AD  23319.78807467  .00000226  00000-0  32264-4 0  9992,2 53913  53.2156 147.0160 0001408  90.1673 269.9481 15.08840203 63855,6917.88,95.438,540.719,538.771,0.0
53913.0,STARLINK-5053,PAYLOAD,2023-11-16 21:56:22,15.08842821,0.0001326,53.2157,141.9608,87.0515,273.0628,0.00011518,1.546e-05,0.0,0 STARLINK-5053,1 53913U 22119AD  23320.91415047  .00001546  00000-0  11518-3 0  9992,2 53913  53.2157 141.9608 0001326  87.0515 273.0628 15.08842821 64448,6917.872,95.437,540.654,538.819,0.0
53913.0,STARLINK-5053,PAYLOAD,2023-11-17 12:14:51,15.08838081,0.0001415,53.2158,139.2846,89.9785,270.137,7.438e-05,8.96e-06,0.0,0 STARLINK-5053,1 53913U 22119AD  23321.51031464  .00000896  00000-0  74380-4 0  9990,2 53913  53.2158 139.2846 0001415  89.9785 270.1370 15.08838081 64111,6917.886,95.438,540.73,538.772,0.0
53913.0,STARLINK-5053,PAYLOAD,2023-11-17 18:36:23,15.08839321,0.0001425,53.2156,138.0948,91.8521,268.2634,7.9263e-05,9.74e-06,0.0,0 STARLINK-5053,1 53913U 22119AD  23321.77527367  .00000974  00000-0  79263-4 0  9992,2 53913  53.2156 138.0948 0001425  91.8521 268.2634 15.08839321 64579,6917.882,95.438,540.733,538.762,0.0
53913.0,STARLINK-5053,PAYLOAD,2023-11-18 12:05:38,15.08840639,0.0001462,53.2153,134.8236,92.0165,268.0994,1.6476e-05,-2.6e-07,0.0,0 STARLINK-5053,1 53913U 22119AD  23322.50391495 -.00000026  00000-0  16476-4 0  9991,2 53913  53.2153 134.8236 0001462  92.0165 268.0994 15.08840639 64681,6917.878,95.438,540.755,538.732,0.0
53913.0,STARLINK-5053,PAYLOAD,2023-11-18 18:27:10,15.08841709,0.0001464,53.2155,133.6339,92.592,267.524,2.2233e-05,6.6e-07,0.0,0 STARLINK-5053,1 53913U 22119AD  23322.76887361  .00000066  00000-0  22233-4 0  9992,2 53913  53.2155 133.6339 0001464  92.5920 267.5240 15.08841709 64306,6917.875,95.437,540.753,538.727,0.0
